SDA_1677                
1 65987U 25230P   26145.20220181  .00000241  00000+0  22599-3 0  9997
2 65987  81.3004 233.5420 0001112 142.3962 217.7269 13.78595926 30590
SDA_1678                
1 65988U 25230Q   26145.21750787  .00000210  00000+0  17500-3 0  9991
2 65988  81.3017 232.8403 0000391 238.1001 122.0118 13.84978330 30642
SDA_1679                
1 65989U 25230R   26144.95599274  .00000134  00000+0  10848-3 0  9997
2 65989  81.3037 233.1567 0001969 256.7377 103.3560 13.84856189 30600
SDA_1680                
1 65990U 25230S   26144.95986681  .00000117  00000+0  92551-4 0  9994
2 65990  81.3018 233.1298 0002925 253.3748 106.7088 13.85227489 30608
SDA_1681                
1 65991U 25230T   26144.94775123  .00000162  00000+0  13176-3 0  9996
2 65991  81.3016 233.1094 0003016 255.8326 104.2496 13.85300921 30601
SDA_1682                
1 65992U 25230U   26145.18789757  .00000219  00000+0  20637-3 0  9995
2 65992  81.3032 233.6227 0001080  99.6302 260.4973 13.78090539 30596
SDA_1683                
1 65993U 25230V   26144.93974093  .00000159  00000+0  14405-3 0  9996
2 65993  81.3021 233.7510 0001246 114.5009 245.6275 13.79141718 30560
SDA_1684                
1 65994U 25230W   26145.23069553  .00000063  00000+0  49554-4 0  9995
2 65994  81.3017 233.4630 0000926 125.6139 234.5102 13.79430359 30600
HULIANWANG DIGUI-87     
1 65995U 25231A   26145.00991573 -.00000108  00000+0  35388-4 0  9999
2 65995  50.0004 258.9745 0000820 153.6804 206.4110 13.29327366 29807
HULIANWANG DIGUI-88     
1 65996U 25231B   26145.01819394 -.00000107  00000+0  37004-4 0  9997
2 65996  49.9995 258.9959 0000930 149.9106 210.1819 13.29328353 29801
HULIANWANG DIGUI-89     
1 65997U 25231C   26145.00154756 -.00000107  00000+0  37422-4 0  9995
2 65997  49.9970 258.8703 0000926 152.2276 207.8645 13.29327221 29804
HULIANWANG DIGUI-90     
1 65998U 25231D   26144.99319572 -.00000103  00000+0  46385-4 0  9996
2 65998  49.9997 258.8779 0000940 149.8543 210.2384 13.29325685 29802
HULIANWANG DIGUI-91     
1 65999U 25231E   26144.68414108 -.00000098  00000+0  55894-4 0  9992
2 65999  50.0016 259.9482 0000927 149.3089 210.7837 13.29326366 29766
HULIANWANG DIGUI-92     
1 66000U 25231F   26145.05168912 -.00000103  00000+0  45908-4 0  9999
2 66000  50.0055 258.6266 0000906 151.5501 208.5420 13.29328307 29816
HULIANWANG DIGUI-93     
1 66001U 25231G   26145.03492073 -.00000103  00000+0  46009-4 0  9999
2 66001  50.0023 258.4866 0000930 149.3891 210.7035 13.29327407 29817
HULIANWANG DIGUI-94     
1 66002U 25231H   26145.04333981 -.00000103  00000+0  44664-4 0  9998
2 66002  50.0064 258.5982 0000943 151.1397 208.9528 13.29325315 29811
HULIANWANG DIGUI-95     
1 66003U 25231J   26145.02677841 -.00000106  00000+0  38231-4 0  9999
2 66003  50.0035 258.4653 0000879 150.3370 209.7552 13.29331666 29816
STARLINK-34849          
1 66005U 25232A   26145.14703590  .00021621  00000+0  64903-3 0  9994
2 66005  53.1607 108.6243 0001284 115.6497 244.4638 15.34407488 35130
STARLINK-35336          
1 66006U 25232B   26145.19072999  .00008838  00000+0  31007-3 0  9996
2 66006  53.1562 108.1821 0000974  76.2650 283.8459 15.30208613 35140
STARLINK-35196          
1 66007U 25232C   26145.14546410  .00014297  00000+0  49372-3 0  9996
2 66007  53.1588 108.6106 0001273 125.9644 234.1475 15.30211397 35137
STARLINK-35236          
1 66008U 25232D   26145.16762705  .00021302  00000+0  72904-3 0  9998
2 66008  53.1593 108.7471 0001260  87.3779 272.7366 15.30210545 35126
STARLINK-35276          
1 66009U 25232E   26145.15812992  .00014174  00000+0  48963-3 0  9999
2 66009  53.1612 108.6916 0000914  77.1528 282.9575 15.30208331 35121
STARLINK-35297          
1 66010U 25232F   26145.22058950  .00022620  00000+0  67865-3 0  9992
2 66010  53.1607 108.3715 0001207  87.9932 272.1209 15.34396651 35149
STARLINK-35256          
1 66011U 25232G   26145.13913351  .00018014  00000+0  61863-3 0  9992
2 66011  53.1581 108.5725 0001201 102.0853 258.0282 15.30211839 35143
STARLINK-35293          
1 66012U 25232H   26145.19811838  .00018938  00000+0  64973-3 0  9996
2 66012  53.1569 108.2288 0001345  90.3660 269.7494 15.30208495 35154
STARLINK-35307          
1 66013U 25232J   26145.10020688  .00025629  00000+0  87392-3 0  9998
2 66013  53.1593 109.0423 0001210  72.5222 287.5911 15.30219522 35132
STARLINK-35395          
1 66014U 25232K   26145.08648149  .00012361  00000+0  42873-3 0  9998
2 66014  53.1612 108.9511 0000251 206.6954 153.4034 15.30202620 35135
STARLINK-34622          
1 66015U 25232L   26145.16671295  .00348749  00000+0  10100-1 0  9994
2 66015  53.1597 108.8232 0001903  96.2587 222.7626 15.33644183  5701
STARLINK-35243          
1 66016U 25232M   26145.18451046  .00013453  00000+0  46543-3 0  9990
2 66016  53.1567 108.8522 0001126  91.1408 268.9722 15.30205050 35147
STARLINK-35398          
1 66017U 25232N   26145.16671295  .00023090  00000+0  69356-3 0  9994
2 66017  53.1598 108.7363 0001695  93.3180 270.8492 15.34347115  5805
