OBJECT_NAME,OBJECT_ID,EPOCH,MEAN_MOTION,ECCENTRICITY,INCLINATION,RA_OF_ASC_NODE,ARG_OF_PERICENTER,MEAN_ANOMALY,EPHEMERIS_TYPE,CLASSIFICATION_TYPE,NORAD_CAT_ID,ELEMENT_SET_NO,REV_AT_EPOCH,BSTAR,MEAN_MOTION_DOT,MEAN_MOTION_DDOT
SDA_1677,2025-230P,2026-05-25T04:51:10.236384,13.78595926,.0001112,81.3004,233.5420,142.3962,217.7269,0,U,65987,999,3059,.22599E-3,.241E-5,0
SDA_1678,2025-230Q,2026-05-25T05:13:12.679968,13.84978330,.0000391,81.3017,232.8403,238.1001,122.0118,0,U,65988,999,3064,.175E-3,.21E-5,0
SDA_1679,2025-230R,2026-05-24T22:56:37.772736,13.84856189,.0001969,81.3037,233.1567,256.7377,103.3560,0,U,65989,999,3060,.10848E-3,.134E-5,0
SDA_1680,2025-230S,2026-05-24T23:02:12.492384,13.85227489,.0002925,81.3018,233.1298,253.3748,106.7088,0,U,65990,999,3060,.92551E-4,.117E-5,0
SDA_1681,2025-230T,2026-05-24T22:44:45.706272,13.85300921,.0003016,81.3016,233.1094,255.8326,104.2496,0,U,65991,999,3060,.13176E-3,.162E-5,0
SDA_1682,2025-230U,2026-05-25T04:30:34.350048,13.78090539,.000108,81.3032,233.6227,99.6302,260.4973,0,U,65992,999,3059,.20637E-3,.219E-5,0
SDA_1683,2025-230V,2026-05-24T22:33:13.616352,13.79141718,.0001246,81.3021,233.7510,114.5009,245.6275,0,U,65993,999,3056,.14405E-3,.159E-5,0
SDA_1684,2025-230W,2026-05-25T05:32:12.093792,13.79430359,.0000926,81.3017,233.4630,125.6139,234.5102,0,U,65994,999,3060,.49554E-4,.63E-6,0
HULIANWANG DIGUI-87,2025-231A,2026-05-25T00:14:16.719072,13.29327366,.000082,50.0004,258.9745,153.6804,206.4110,0,U,65995,999,2980,.35388E-4,-.108E-5,0
HULIANWANG DIGUI-88,2025-231B,2026-05-25T00:26:11.956416,13.29328353,.000093,49.9995,258.9959,149.9106,210.1819,0,U,65996,999,2980,.37004E-4,-.107E-5,0
HULIANWANG DIGUI-89,2025-231C,2026-05-25T00:02:13.709184,13.29327221,.0000926,49.9970,258.8703,152.2276,207.8645,0,U,65997,999,2980,.37422E-4,-.107E-5,0
HULIANWANG DIGUI-90,2025-231D,2026-05-24T23:50:12.110208,13.29325685,.000094,49.9997,258.8779,149.8543,210.2384,0,U,65998,999,2980,.46385E-4,-.103E-5,0
HULIANWANG DIGUI-91,2025-231E,2026-05-24T16:25:09.789312,13.29326366,.00009276,50.0016,259.9482,149.3089,210.7837,0,U,65999,999,2976,.55893925E-4,-.98E-6,0
HULIANWANG DIGUI-92,2025-231F,2026-05-25T01:14:25.939968,13.29328307,.0000906,50.0055,258.6266,151.5501,208.5420,0,U,66000,999,2981,.45908E-4,-.103E-5,0
HULIANWANG DIGUI-93,2025-231G,2026-05-25T00:50:17.151072,13.29327407,.000093,50.0023,258.4866,149.3891,210.7035,0,U,66001,999,2981,.46009E-4,-.103E-5,0
HULIANWANG DIGUI-94,2025-231H,2026-05-25T01:02:24.559584,13.29325315,.0000943,50.0064,258.5982,151.1397,208.9528,0,U,66002,999,2981,.44664E-4,-.103E-5,0
HULIANWANG DIGUI-95,2025-231J,2026-05-25T00:38:33.654624,13.29331666,.0000879,50.0035,258.4653,150.3370,209.7552,0,U,66003,999,2981,.38231E-4,-.106E-5,0
STARLINK-34849,2025-232A,2026-05-25T03:31:43.901760,15.34407488,.0001284,53.1607,108.6243,115.6497,244.4638,0,U,66005,999,3513,.64903E-3,.21621E-3,0
STARLINK-35336,2025-232B,2026-05-25T04:34:39.071136,15.30208613,.0000974,53.1562,108.1821,76.2650,283.8459,0,U,66006,999,3514,.31007E-3,.8838E-4,0
STARLINK-35196,2025-232C,2026-05-25T03:29:28.098240,15.30211397,.0001273,53.1588,108.6106,125.9644,234.1475,0,U,66007,999,3513,.49372E-3,.14297E-3,0
STARLINK-35236,2025-232D,2026-05-25T04:01:22.977120,15.30210545,.000126,53.1593,108.7471,87.3779,272.7366,0,U,66008,999,3512,.72904E-3,.21302E-3,0
STARLINK-35276,2025-232E,2026-05-25T03:47:42.425088,15.30208331,.0000914,53.1612,108.6916,77.1528,282.9575,0,U,66009,999,3512,.48963E-3,.14174E-3,0
STARLINK-35297,2025-232F,2026-05-25T05:17:38.932800,15.34396651,.0001207,53.1607,108.3715,87.9932,272.1209,0,U,66010,999,3514,.67865E-3,.2262E-3,0
STARLINK-35256,2025-232G,2026-05-25T03:20:21.135264,15.30211839,.0001201,53.1581,108.5725,102.0853,258.0282,0,U,66011,999,3514,.61863E-3,.18014E-3,0
STARLINK-35293,2025-232H,2026-05-25T04:45:17.428032,15.30208495,.0001345,53.1569,108.2288,90.3660,269.7494,0,U,66012,999,3515,.64973E-3,.18938E-3,0
STARLINK-35307,2025-232J,2026-05-25T02:24:17.874432,15.30219522,.000121,53.1593,109.0423,72.5222,287.5911,0,U,66013,999,3513,.87392E-3,.25629E-3,0
STARLINK-35395,2025-232K,2026-05-25T02:04:32.000736,15.30202620,.0000251,53.1612,108.9511,206.6954,153.4034,0,U,66014,999,3513,.42873E-3,.12361E-3,0
STARLINK-34622,2025-232L,2026-05-25T04:00:03.998880,15.33644183,.0001903,53.1597,108.8232,96.2587,222.7626,0,U,66015,999,570,.101E-1,.348749E-2,0
STARLINK-35243,2025-232M,2026-05-25T04:25:41.703744,15.30205050,.0001126,53.1567,108.8522,91.1408,268.9722,0,U,66016,999,3514,.46543E-3,.13453E-3,0
STARLINK-35398,2025-232N,2026-05-25T04:00:03.998880,15.34347115,.0001695,53.1598,108.7363,93.3180,270.8492,0,U,66017,999,580,.69356E-3,.2309E-3,0
